OBJECT_NAME,OBJECT_ID,EPOCH,MEAN_MOTION,ECCENTRICITY,INCLINATION,RA_OF_ASC_NODE,ARG_OF_PERICENTER,MEAN_ANOMALY,EPHEMERIS_TYPE,CLASSIFICATION_TYPE,NORAD_CAT_ID,ELEMENT_SET_NO,REV_AT_EPOCH,BSTAR,MEAN_MOTION_DOT,MEAN_MOTION_DDOT
STARLINK-35581,2025-262Z,2026-06-24T22:35:01.356288,15.27599654,.00009058,43.0042,50.0800,247.8096,112.2659,0,U,66479,999,3531,.68870559E-3,.18749E-3,0
STARLINK-35670,2025-262AA,2026-06-25T08:57:20.515104,15.27603876,.0002636,43.0047,48.1569,86.6728,273.4425,0,U,66480,999,3537,.92839743E-3,.25393E-3,0
STARLINK-35698,2025-262AB,2026-06-24T08:31:18.936192,15.27572847,.0001297,43.0001,53.4165,275.8531,84.2173,0,U,66481,999,3522,.50612677E-3,.13688E-3,0
STARLINK-35648,2025-262AC,2026-06-24T08:57:12.932640,15.27599670,.00023304,43.0027,53.5513,264.3847,95.6739,0,U,66482,999,3506,.99061522E-3,.27115E-3,0
STARLINK-35654,2025-262AD,2026-06-25T08:14:44.461824,15.27613542,.00033936,42.9974,47.9362,266.7528,93.2935,0,U,66483,999,3537,.71168227E-3,.19395E-3,0
STARLINK-35371,2025-262AE,2026-06-24T22:29:41.013600,15.27599094,.00007929,42.9991,50.9053,267.1118,92.9643,0,U,66484,999,3530,.75330105E-3,.20537E-3,0
STARLINK-34774,2025-263A,2026-06-25T12:30:48.616128,15.27600787,.00017907,43.0028,101.4438,275.3698,84.6949,0,U,66485,999,3539,.74450879E-3,.20295E-3,0
STARLINK-34844,2025-263B,2026-06-25T12:28:58.515744,15.27611239,.00016436,43.0030,101.4286,271.7984,88.2679,0,U,66486,999,3534,.68069028E-3,.18534E-3,0
STARLINK-34733,2025-263C,2026-06-25T12:25:15.307392,15.27612059,.00010719,43.0030,101.4103,291.4253,68.6484,0,U,66487,999,3539,.10542473E-2,.2889E-3,0
STARLINK-35515,2025-263D,2026-06-24T21:00:21.158496,15.27607978,.00015155,43.0001,105.1854,271.0767,88.9911,0,U,66488,999,3529,.89050134E-3,.24344E-3,0
STARLINK-35696,2025-263E,2026-06-25T11:26:15.380160,15.27607251,.00021526,42.9982,101.9614,287.0487,73.0128,0,U,66489,999,3538,.79434997E-3,.2168E-3,0
STARLINK-35693,2025-263F,2026-06-24T20:52:57.212832,15.27612616,.00014501,43.0023,105.1525,266.9188,93.1497,0,U,66490,999,3529,.95807481E-3,.26222E-3,0
STARLINK-35663,2025-263G,2026-06-25T11:39:12.627648,15.27600827,.00016419,43.0016,102.0257,262.5627,97.5038,0,U,66491,999,3538,.71457105E-3,.19466E-3,0
STARLINK-35673,2025-263H,2026-06-24T21:15:09.575136,15.27588783,.00011483,42.9990,105.2689,271.0020,89.0700,0,U,66492,999,3529,.86335666E-3,.23578E-3,0
STARLINK-35597,2025-263J,2026-06-25T11:57:42.732864,15.27611471,.00019624,43.0027,102.1297,262.7307,97.3321,0,U,66493,999,3538,.11183186E-2,.3067E-3,0
STARLINK-35689,2025-263K,2026-06-25T12:08:49.045344,15.27598170,.00014421,43.0030,102.1901,273.2468,86.8219,0,U,66494,999,3538,.56713401E-3,.15385E-3,0
STARLINK-35832,2025-263L,2026-06-24T21:09:36.599040,15.27573795,.00012635,43.0003,105.2354,267.2884,92.7823,0,U,66495,999,3529,.94908876E-4,.235E-4,0
STARLINK-35909,2025-263M,2026-06-25T11:50:18.897792,15.27601264,.00011922,43.0005,102.0859,259.3230,100.7488,0,U,66496,999,3538,.94917955E-3,.25966E-3,0
STARLINK-35899,2025-263N,2026-06-24T20:54:47.876544,15.27614830,.00014893,43.0026,105.1533,257.4070,102.6616,0,U,66497,999,3529,.83289715E-3,.22752E-3,0
STARLINK-35907,2025-263P,2026-06-25T11:48:27.398592,15.27605185,.00023023,42.9987,102.0834,259.7614,100.2978,0,U,66498,999,3538,.65511568E-3,.17823E-3,0
STARLINK-35816,2025-263Q,2026-06-25T12:03:15.835104,15.27608270,.00015273,43.0043,102.1594,263.9683,96.0994,0,U,66499,999,3538,.6039649E-3,.16409E-3,0
STARLINK-35894,2025-263R,2026-06-24T21:16:20.398080,15.27599383,.000192,43.0019,108.7382,285.1792,74.8847,0,U,66500,999,3525,.10315865E-2,.28251E-3,0
STARLINK-35897,2025-263S,2026-06-24T11:59:28.008672,15.27604926,.000208,42.9969,107.5282,275.1825,84.8789,0,U,66501,999,3523,.86650317E-3,.23677E-3,0
STARLINK-35922,2025-263T,2026-06-25T11:59:33.785376,15.27606096,.00013792,43.0028,102.1336,260.7907,99.2789,0,U,66502,999,3538,.67855685E-3,.18472E-3,0
STARLINK-35917,2025-263U,2026-06-25T11:42:56.249856,15.27561854,.00005269,42.9982,102.0444,281.5262,78.5530,0,U,66503,999,3538,.1924943E-4,.268E-5,0
STARLINK-35916,2025-263V,2026-06-25T11:47:48.937632,15.27589117,.00002855,42.9969,105.5632,324.0535,36.0297,0,U,66504,999,3534,.78850685E-3,.21505E-3,0
STARLINK-34766,2025-263W,2026-06-25T12:19:42.364992,15.27603604,.00019716,43.0044,101.3773,275.3083,84.7543,0,U,66505,999,3539,.79478197E-3,.21689E-3,0
STARLINK-34765,2025-263X,2026-06-25T11:28:06.558816,15.27602986,.00017722,42.9974,101.9676,283.6596,76.4058,0,U,66506,999,3538,.73562689E-3,.2005E-3,0
STARLINK-34767,2025-263Y,2026-06-25T11:54:00.439488,15.27616954,.00021276,43.0015,102.1104,265.3138,94.7470,0,U,66507,999,3538,.10478016E-2,.28717E-3,0
STARLINK-35608,2025-263Z,2026-06-25T11:37:21.364320,15.27621913,.00017324,43.0002,102.0145,275.7573,84.3081,0,U,66508,999,3538,.12077708E-2,.33166E-3,0
