[
  {
    "name": "STARLINK-35581",
    "noradId": "66479",
    "line1": "1 66479U 25262Z   26175.94098792  .00018749  00000+0  68871-3 0  9999",
    "line2": "2 66479  43.0042  50.0800 0000905 247.8096 112.2659 15.27599654 35311"
  },
  {
    "name": "STARLINK-35670",
    "noradId": "66480",
    "line1": "1 66480U 25262AA  26176.37315411  .00025393  00000+0  92840-3 0  9995",
    "line2": "2 66480  43.0047  48.1569 0002636  86.6728 273.4425 15.27603876 35371"
  },
  {
    "name": "STARLINK-35698",
    "noradId": "66481",
    "line1": "1 66481U 25262AB  26175.35508028  .00013688  00000+0  50613-3 0  9997",
    "line2": "2 66481  43.0001  53.4165 0001297 275.8531  84.2173 15.27572847 35224"
  },
  {
    "name": "STARLINK-35648",
    "noradId": "66482",
    "line1": "1 66482U 25262AC  26175.37306635  .00027115  00000+0  99062-3 0  9991",
    "line2": "2 66482  43.0027  53.5513 0002330 264.3847  95.6739 15.27599670 35062"
  },
  {
    "name": "STARLINK-35654",
    "noradId": "66483",
    "line1": "1 66483U 25262AD  26176.34357016  .00019395  00000+0  71168-3 0  9997",
    "line2": "2 66483  42.9974  47.9362 0003393 266.7528  93.2935 15.27613542 35374"
  },
  {
    "name": "STARLINK-35371",
    "noradId": "66484",
    "line1": "1 66484U 25262AE  26175.93728025  .00020537  00000+0  75330-3 0  9999",
    "line2": "2 66484  42.9991  50.9053 0000792 267.1118  92.9643 15.27599094 35305"
  },
  {
    "name": "STARLINK-34774",
    "noradId": "66485",
    "line1": "1 66485U 25263A   26176.52139602  .00020295  00000+0  74451-3 0  9998",
    "line2": "2 66485  43.0028 101.4438 0001790 275.3698  84.6949 15.27600787 35399"
  },
  {
    "name": "STARLINK-34844",
    "noradId": "66486",
    "line1": "1 66486U 25263B   26176.52012171  .00018534  00000+0  68069-3 0  9991",
    "line2": "2 66486  43.0030 101.4286 0001643 271.7984  88.2679 15.27611239 35348"
  },
  {
    "name": "STARLINK-34733",
    "noradId": "66487",
    "line1": "1 66487U 25263C   26176.51753828  .00028890  00000+0  10542-2 0  9990",
    "line2": "2 66487  43.0030 101.4103 0001071 291.4253  68.6484 15.27612059 35392"
  },
  {
    "name": "STARLINK-35515",
    "noradId": "66488",
    "line1": "1 66488U 25263D   26175.87524489  .00024344  00000+0  89050-3 0  9999",
    "line2": "2 66488  43.0001 105.1854 0001515 271.0767  88.9911 15.27607978 35295"
  },
  {
    "name": "STARLINK-35696",
    "noradId": "66489",
    "line1": "1 66489U 25263E   26176.47656690  .00021680  00000+0  79435-3 0  9993",
    "line2": "2 66489  42.9982 101.9614 0002152 287.0487  73.0128 15.27607251 35383"
  },
  {
    "name": "STARLINK-35693",
    "noradId": "66490",
    "line1": "1 66490U 25263F   26175.87010663  .00026222  00000+0  95807-3 0  9990",
    "line2": "2 66490  43.0023 105.1525 0001450 266.9188  93.1497 15.27612616 35297"
  },
  {
    "name": "STARLINK-35663",
    "noradId": "66491",
    "line1": "1 66491U 25263G   26176.48556282  .00019466  00000+0  71457-3 0  9998",
    "line2": "2 66491  43.0016 102.0257 0001641 262.5627  97.5038 15.27600827 35380"
  },
  {
    "name": "STARLINK-35673",
    "noradId": "66492",
    "line1": "1 66492U 25263H   26175.88552749  .00023578  00000+0  86336-3 0  9997",
    "line2": "2 66492  42.9990 105.2689 0001148 271.0020  89.0700 15.27588783 35296"
  },
  {
    "name": "STARLINK-35597",
    "noradId": "66493",
    "line1": "1 66493U 25263J   26176.49841126  .00030670  00000+0  11183-2 0  9994",
    "line2": "2 66493  43.0027 102.1297 0001962 262.7307  97.3321 15.27611471 35382"
  },
  {
    "name": "STARLINK-35689",
    "noradId": "66494",
    "line1": "1 66494U 25263K   26176.50612321  .00015385  00000+0  56713-3 0  9995",
    "line2": "2 66494  43.0030 102.1901 0001442 273.2468  86.8219 15.27598170 35386"
  },
  {
    "name": "STARLINK-35832",
    "noradId": "66495",
    "line1": "1 66495U 25263L   26175.88167360  .00002350  00000+0  94909-4 0  9992",
    "line2": "2 66495  43.0003 105.2354 0001263 267.2884  92.7823 15.27573795 35292"
  },
  {
    "name": "STARLINK-35909",
    "noradId": "66496",
    "line1": "1 66496U 25263M   26176.49327428  .00025966  00000+0  94918-3 0  9991",
    "line2": "2 66496  43.0005 102.0859 0001192 259.3230 100.7488 15.27601264 35388"
  },
  {
    "name": "STARLINK-35899",
    "noradId": "66497",
    "line1": "1 66497U 25263N   26175.87138746  .00022752  00000+0  83290-3 0  9997",
    "line2": "2 66497  43.0026 105.1533 0001489 257.4070 102.6616 15.27614830 35292"
  },
  {
    "name": "STARLINK-35907",
    "noradId": "66498",
    "line1": "1 66498U 25263P   26176.49198378  .00017823  00000+0  65512-3 0  9994",
    "line2": "2 66498  42.9987 102.0834 0002302 259.7614 100.2978 15.27605185 35389"
  },
  {
    "name": "STARLINK-35816",
    "noradId": "66499",
    "line1": "1 66499U 25263Q   26176.50226661  .00016409  00000+0  60396-3 0  9998",
    "line2": "2 66499  43.0043 102.1594 0001527 263.9683  96.0994 15.27608270 35388"
  },
  {
    "name": "STARLINK-35894",
    "noradId": "66500",
    "line1": "1 66500U 25263R   26175.88634720  .00028251  00000+0  10316-2 0  9994",
    "line2": "2 66500  43.0019 108.7382 0001920 285.1792  74.8847 15.27599383 35256"
  },
  {
    "name": "STARLINK-35897",
    "noradId": "66501",
    "line1": "1 66501U 25263S   26175.49962973  .00023677  00000+0  86650-3 0  9998",
    "line2": "2 66501  42.9969 107.5282 0002080 275.1825  84.8789 15.27604926 35233"
  },
  {
    "name": "STARLINK-35922",
    "noradId": "66502",
    "line1": "1 66502U 25263T   26176.49969659  .00018472  00000+0  67856-3 0  9992",
    "line2": "2 66502  43.0028 102.1336 0001379 260.7907  99.2789 15.27606096 35380"
  },
  {
    "name": "STARLINK-35917",
    "noradId": "66503",
    "line1": "1 66503U 25263U   26176.48815104  .00000268  00000+0  19249-4 0  9995",
    "line2": "2 66503  42.9982 102.0444 0000526 281.5262  78.5530 15.27561854 35381"
  },
  {
    "name": "STARLINK-35916",
    "noradId": "66504",
    "line1": "1 66504U 25263V   26176.49153863  .00021505  00000+0  78851-3 0  9994",
    "line2": "2 66504  42.9969 105.5632 0000285 324.0535  36.0297 15.27589117 35349"
  },
  {
    "name": "STARLINK-34766",
    "noradId": "66505",
    "line1": "1 66505U 25263W   26176.51368478  .00021689  00000+0  79478-3 0  9997",
    "line2": "2 66505  43.0044 101.3773 0001971 275.3083  84.7543 15.27603604 35392"
  },
  {
    "name": "STARLINK-34765",
    "noradId": "66506",
    "line1": "1 66506U 25263X   26176.47785369  .00020050  00000+0  73563-3 0  9995",
    "line2": "2 66506  42.9974 101.9676 0001772 283.6596  76.4058 15.27602986 35381"
  },
  {
    "name": "STARLINK-34767",
    "noradId": "66507",
    "line1": "1 66507U 25263Y   26176.49583842  .00028717  00000+0  10478-2 0  9993",
    "line2": "2 66507  43.0015 102.1104 0002127 265.3138  94.7470 15.27616954 35384"
  },
  {
    "name": "STARLINK-35608",
    "noradId": "66508",
    "line1": "1 66508U 25263Z   26176.48427505  .00033166  00000+0  12078-2 0  9998",
    "line2": "2 66508  43.0002 102.0145 0001732 275.7573  84.3081 15.27621913 35388"
  }
]